CELTEE 1                
1 41850U 16067C   18106.18858071  .00000807  00000-0  75841-4 0  9996
2 41850  97.9240 193.5847 0009095  21.4138 338.7462 14.96780747 77820
OPTICUBE 04             
1 41851U 16067D   18106.21483791 -.00000374  00000-0 -27444-4 0  9991
2 41851  97.9237 193.5430 0009417  20.1963 339.9629 14.96647439 77823
AEROCUBE 8D             
1 41852U 16067E   18105.77605179  .00000511  00000-0  50400-4 0  9997
2 41852  97.9246 192.9491 0009879  21.5808 338.5827 14.96450895 77743
AEROCUBE 8C             
1 41853U 16067F   18106.18992251  .00000811  00000-0  76800-4 0  9999
2 41853  97.9251 193.3353 0010410  22.1164 338.0504 14.96418993 77804
PROMETHEUS 2-1          
1 41854U 16067G   18106.20029174  .00000626  00000-0  60417-4 0  9999
2 41854  97.9258 193.3409 0010809  21.4145 338.7526 14.96504056 77804
PROMETHEUS 2-3          
1 41855U 16067H   18106.20281365  .00000497  00000-0  49064-4 0  9993
2 41855  97.9260 193.3465 0011013  21.4606 338.7075 14.96501867 77806
ITF-2                   
1 41932U 98067KU  18105.91139028  .00029112  00000-0  21724-3 0  9991
2 41932  51.6362 300.8633 0003303 308.4609  51.6092 15.72483651 70952
WASEDA-SAT3             
1 41933U 98067KV  18105.91114981  .00044043  00000-0  27108-3 0  9995
2 41933  51.6358 296.2456 0003003 301.0908  58.9797 15.76738588 71013
AOBA-VELOX 3            
1 41935U 98067KX  18105.93100004  .00039084  00000-0  25892-3 0  9997
2 41935  51.6357 297.9490 0002845 302.0711  58.0012 15.75112183 71091
INS-1B                  
1 41954U 17008G   18106.22916138  .00001553  00000-0  69385-4 0  9996
2 41954  97.4518 170.7018 0008864 201.2156 158.8714 15.22823704 64576
BGUSAT                  
1 41999U 17008BD  18105.93622509  .00002325  00000-0  98081-4 0  9991
2 41999  97.4560 171.2874 0007509 219.8866 140.1820 15.24299761 63940
DIDO-2                  
1 42000U 17008BE  18105.91655676  .00000983  00000-0  44747-4 0  9992
2 42000  97.4537 170.7888 0007562 222.4365 137.6288 15.23054952 63927
PEASSS                  
1 42015U 17008BV  18105.92760096  .00001321  00000-0  57756-4 0  9993
2 42015  97.4532 171.1838 0005312 228.1183 131.9602 15.23840178 64437
AL-FARABI 1             
1 42016U 17008BW  18106.13322026  .00001692  00000-0  72380-4 0  9996
2 42016  97.4539 171.5425 0005221 227.2286 132.8512 15.24211349 64594
NAYIF-1 (EO-88)         
1 42017U 17008BX  18105.93147580  .00001709  00000-0  73033-4 0  9999
2 42017  97.4538 171.3478 0005175 228.3617 131.7178 15.24232955 64589
HAVELSAT                
1 42700U 98067LH  18106.19909896  .00024365  00000-0  22069-3 0  9992
2 42700  51.6361 311.0350 0003171  19.6581 340.4537 15.67908876 52282
SGSAT                   
1 42703U 98067LL  18105.90933071  .00258382  37084-4  66274-3 0  9995
2 42703  51.6285 296.1017 0007730 276.2360  83.7767 15.94747801 52364
CXBN-2                  
1 42704U 98067LM  18105.94919684  .00023785  00000-0  21899-3 0  9999
2 42704  51.6365 313.1278 0001348 274.8790  85.2053 15.67522529 52153
ICECUBE                 
1 42705U 98067LN  18106.06473737  .00044286  00000-0  31974-3 0  9992
2 42705  51.6411 307.9560 0002326 297.4047  62.6715 15.73052805 52295
PHOENIX                 
1 42706U 98067LP  18106.15750526  .00023105  00000-0  22007-3 0  9991
2 42706  51.6361 312.2624 0000617 287.0881  73.0048 15.66697887 52171
X-CUBESAT               
1 42707U 98067LQ  18106.06972083  .00026513  00000-0  23646-3 0  9992
2 42707  51.6333 311.6265 0000788 262.1365  97.9543 15.68240166 52165
QBEE50-LTU-OC           
1 42708U 98067LR  18105.98679438  .00024812  00000-0  22723-3 0  9996
2 42708  51.6363 312.6058 0000718 266.0530  94.0384 15.67627109 52100
ALTAIR PATHFINDER       
1 42711U 98067LS  18106.19722216  .00013410  00000-0  15194-3 0  9993
2 42711  51.6366 317.0294 0003062 303.0102  57.0598 15.62737845 51772
SHARC                   
1 42712U 98067LT  18106.11289434  .00019978  00000-0  23291-3 0  9998
2 42712  51.6384 318.7614 0001645 309.1165  50.9682 15.61647629 51986
ZA-AEROSAT              
1 42713U 98067LU  18106.13602713  .00018038  00000-0  18172-3 0  9998
2 42713  51.6354 314.3587 0001630 278.1265  81.9545 15.65472778 51803
LINK                    
1 42714U 98067LV  18105.95942544  .00048002  00000-0  34309-3 0  9991
2 42714  51.6313 308.5907 0002451 260.7558  99.3163 15.73253659 51975
CSUNSAT 1               
1 42715U 98067LW  18105.98312614  .00020102  00000-0  19877-3 0  9998
2 42715  51.6365 314.8538 0003228 288.7665  71.2980 15.65856333 51789
SPACECUBE               
1 42717U 98067LY  18105.94755234  .00024265  00000-0  22285-3 0  9996
2 42717  51.6346 313.0876 0001904  21.5487 338.5589 15.67571782 51171
HOOPOE                  
1 42718U 98067LZ  18105.93968293  .00029930  00000-0  25472-3 0  9992
2 42718  51.6356 311.5383 0001497  12.0328 348.0705 15.69315918 51192
CHALLENGER              
1 42721U 98067MA  18106.11812022  .00064595  00000-0  39588-3 0  9994
2 42721  51.6303 305.1434 0003096 323.5033  36.5755 15.76673824 50996
NJUST-1                 
1 42722U 98067MB  18106.09828961  .00017470  00000-0  18172-3 0  9997
2 42722  51.6363 315.6199 0004795   0.3925 359.7073 15.64680311 50858
UNSW-ECO                
1 42723U 98067MC  18105.96198277  .00033209  00000-0  27748-3 0  9990
2 42723  51.6373 311.7088 0003605 350.9869   9.1063 15.69701430 50872
LILACSAT-1              
1 42725U 98067ME  18106.16148716  .00022446  00000-0  21564-3 0  9999
2 42725  51.6361 313.7898 0003615   0.1289 359.9707 15.66499962 50785
NSIGHT-1                
1 42726U 98067MF  18105.96193231  .00006483  00000-0  83140-4 0  9991
2 42726  51.6389 320.7475 0004986   7.2214 352.8851 15.60547022 50689
SNUSAT-1                
1 42727U 98067MG  18105.78641708  .00022553  00000-0  21770-3 0  9995
2 42727  51.6347 315.7450 0005323 315.3204  44.7363 15.66369497 50699
I-INSPIRE II            
1 42731U 98067ML  18106.10302810  .00031006  00000-0  25453-3 0  9990
2 42731  51.6345 310.3456 0004629 295.3974  64.6544 15.70161354 50686
POLYITAN-2-SAU          
1 42732U 98067MM  18105.94000925  .00024718  00000-0  22239-3 0  9995
2 42732  51.6355 313.0299 0004876 297.0052  63.0446 15.68058193 50635
SNUSAT-1B               
1 42733U 98067MN  18105.97438487  .00022955  00000-0  21629-3 0  9990
2 42733  51.6357 314.0201 0005004 302.1959  57.8552 15.66962135 50626
EXALTA-1                
1 42734U 98067MP  18106.16763956  .00035692  00000-0  28816-3 0  9992
2 42734  51.6329 310.0152 0005077 324.1248  35.9408 15.70486495 50646
BEEAGLESAT              
1 42736U 98067MR  18106.11713782  .00020168  00000-0  19809-3 0  9995
2 42736  51.6351 314.2214 0004792 354.2842   5.8098 15.66016615 50699
ATLANTIS                
1 42737U 98067MS  18087.11387049  .13966215  12356-4  93055-3 0  9999
2 42737  51.6095  27.8979 0006293 234.7874 125.2564 16.40626348 47903
UCLSAT                  
1 42765U 17036A   18105.80748504  .00001367  00000-0  63465-4 0  9997
2 42765  97.4073 166.6456 0010319 299.1830  60.8373 15.21678460 45811
LITUANICASAT-2          
1 42768U 17036D   18105.90881947  .00002099  00000-0  97309-4 0  9997
2 42768  97.4085 166.3830 0014089 285.5678  74.4002 15.21095425 45091
AALTO-1                 
1 42775U 17036L   18105.91637200  .00000880  00000-0  43210-4 0  9995
2 42775  97.4068 166.3469 0012617 284.1304  75.8529 15.20630321 45036
URSA MAIOR              
1 42776U 17036M   18105.70855407  .00000946  00000-0  46101-4 0  9999
2 42776  97.4075 166.1814 0012448 285.1796  74.8063 15.20700044 45004
COMPASS 2               
1 42777U 17036N   18105.86723635  .00001704  00000-0  78704-4 0  9991
2 42777  97.4092 166.6273 0011332 288.4503  71.5500 15.21507001 45033
DIAMOND RED             
1 42783U 17036U   18105.85660665  .00001122  00000-0  53197-4 0  9993
2 42783  97.4075 166.5852 0010906 298.5940  61.4198 15.21312531 45039
PEGASUS                 
1 42784U 17036V   18106.16611461  .00001259  00000-0  59006-4 0  9995
2 42784  97.4076 166.9397 0010831 297.4967  62.5168 15.21497968 45085
DIAMOND GREEN           
1 42785U 17036W   18106.11870215  .00001030  00000-0  49072-4 0  9994
2 42785  97.4076 166.8542 0010784 298.2658  61.7489 15.21316242 45060
DIAMOND BLUE            
1 42786U 17036X   18105.72319427  .00001099  00000-0  52167-4 0  9998
2 42786  97.4077 166.4654 0010666 300.0475  59.9702 15.21316251 45001
NUDTSAT                 
1 42787U 17036Y   18105.90917922  .00001834  00000-0  83324-4 0  9999
2 42787  97.4080 166.8319 0010316 298.1415  61.8778 15.21999756 44899
SUCHAI                  
1 42788U 17036Z   18105.73921347  .00001508  00000-0  69571-4 0  9993
2 42788  97.4077 166.5927 0010443 299.3350  60.6842 15.21736605 45094
SKCUBE                  
1 42789U 17036AA  18105.93462244  .00001389  00000-0  64369-4 0  9999
2 42789  97.4075 166.7845 0010302 298.5677  61.4521 15.21712695 45042
VZLUSAT-1               
1 42790U 17036AB  18105.89944219  .00001760  00000-0  80026-4 0  9994
2 42790  97.4076 166.8305 0009900 298.6972  61.3269 15.22026681 45040
ROBUSTA-1B              
1 42792U 17036AD  18106.17199678  .00001409  00000-0  64989-4 0  9999
2 42792  97.4073 167.0686 0009854 298.8796  61.1451 15.21852449 45092
CICERO 6                
1 42793U 17036AE  18105.83220046  .00000925  00000-0  43842-4 0  9993
2 42793  97.4068 166.7479 0009038 302.0612  57.9745 15.21750041 45119
D-SAT                   
1 42794U 17036AF  18105.69190310  .00000443  00000-0  43804-4 0  9991
2 42794  97.5987 162.6881 0128431 129.7920 231.4691 14.90824758 44411
TOKI                    
1 42820U 98067MU  18105.83371515  .00019412  00000-0  19778-3 0  9996
2 42820  51.6356 317.5845 0002363 269.8861  90.1863 15.65129323 44081
MAZAALAI (NUMSAT-1)     
1 42822U 98067MW  18105.85732468  .00019721  00000-0  20259-3 0  9997
2 42822  51.6358 317.7458 0002266 276.2473  83.8264 15.64908878 44083
